{"fetched_at":"2026-03-29T16:36:15Z","count":15609,"tles":[{"name":"STARLINK-35548","line1":"1 66203U 25243AC  26087.89170029  .00015484  00000+0  53375-3 0  9999","line2":"2 66203  53.1590 156.0589 0001872  84.4985 275.6230 15.30205085 23595","category":"Starlink"}]}